[{"OBJECT_NAME":"NEE-02 KRYSAOR","OBJECT_ID":"2013-066AB","EPOCH":"2026-03-09T09:04:24.249216","MEAN_MOTION":14.86160783,"ECCENTRICITY":0.006776,"INCLINATION":97.8816,"RA_OF_ASC_NODE":8.3817,"ARG_OF_PERICENTER":38.0821,"MEAN_ANOMALY":322.5155,"EPHEMERIS_TYPE":0,"CLASSIFICATION_TYPE":"U","NORAD_CAT_ID":39441,"ELEMENT_SET_NO":999,"REV_AT_EPOCH":66137,"BSTAR":0.00046918892,"MEAN_MOTION_DOT":4.234e-5,"MEAN_MOTION_DDOT":0},{"OBJECT_NAME":"STARLINK-5894","OBJECT_ID":"2023-037BD","EPOCH":"2026-03-09T22:29:02.552640","MEAN_MOTION":14.98326384,"ECCENTRICITY":0.00029519,"INCLINATION":69.9983,"RA_OF_ASC_NODE":263.6926,"ARG_OF_PERICENTER":268.7234,"MEAN_ANOMALY":91.3586,"EPHEMERIS_TYPE":0,"CLASSIFICATION_TYPE":"U","NORAD_CAT_ID":55965,"ELEMENT_SET_NO":999,"REV_AT_EPOCH":16451,"BSTAR":-7.9674271e-5,"MEAN_MOTION_DOT":-1.043e-5,"MEAN_MOTION_DDOT":0}]
